OBJECT_NAME,OBJECT_ID,EPOCH,MEAN_MOTION,ECCENTRICITY,INCLINATION,RA_OF_ASC_NODE,ARG_OF_PERICENTER,MEAN_ANOMALY,EPHEMERIS_TYPE,CLASSIFICATION_TYPE,NORAD_CAT_ID,ELEMENT_SET_NO,REV_AT_EPOCH,BSTAR,MEAN_MOTION_DOT,MEAN_MOTION_DDOT
STARLINK-32652,2024-231S,2026-07-12T20:26:02.116896,15.31675762,.00011518,53.1614,358.0937,71.2486,288.8641,0,U,62234,999,9092,.68924951E-3,.21067E-3,0
STARLINK-32631,2024-231T,2026-07-12T21:41:59.575200,15.31717515,.00010784,53.1590,344.2254,79.9648,280.1475,0,U,62235,999,9112,.44726804E-3,.13547E-3,0
STARLINK-32641,2024-231U,2026-07-12T19:18:08.640288,15.30210056,.00012687,53.1612,345.7267,82.3067,277.8078,0,U,62236,999,9109,.4426295E-3,.12777E-3,0
STARLINK-32632,2024-231V,2026-07-12T18:38:36.896352,15.31719071,.00011521,53.1611,358.3393,96.1084,264.0048,0,U,62262,999,9092,.48538068E-3,.14736E-3,0
STARLINK-11496 [DTC],2024-237A,2026-07-12T12:52:16.999104,15.70893034,.00019707,43.0003,24.4160,257.5692,102.4956,0,U,62267,999,9268,.17475819E-2,.230638E-2,0
STARLINK-11501 [DTC],2024-237B,2026-07-12T21:15:45.994464,15.70871968,.00015951,42.9997,21.8581,274.3366,85.7319,0,U,62268,999,9269,.11564908E-2,.150871E-2,0
STARLINK-11491 [DTC],2024-237C,2026-07-12T21:08:07.456704,15.70804933,.00014289,43.0002,21.8166,302.4948,57.5782,0,U,62269,999,9274,.15240121E-2,.199575E-2,0
STARLINK-11479 [DTC],2024-237D,2026-07-12T21:31:03.446688,15.70905310,.00017892,43.0003,21.9432,273.8619,86.2045,0,U,62270,999,9274,.16922213E-2,.223231E-2,0
STARLINK-11489 [DTC],2024-237E,2026-07-12T20:53:01.010112,15.70881148,.00017308,42.9993,22.6301,281.3052,78.7621,0,U,62271,999,9273,.96903835E-3,.126013E-2,0
STARLINK-11494 [DTC],2024-237F,2026-07-11T23:00:36.350784,15.70838273,.00009592,42.9985,27.8231,283.9144,76.1617,0,U,62272,999,9254,.10852938E-2,.141187E-2,0
STARLINK-11333 [DTC],2024-237G,2026-07-12T22:09:16.818048,15.70890966,.00024901,43.0017,22.1587,281.8401,78.2188,0,U,62273,999,9274,.10422131E-2,.135787E-2,0
STARLINK-11504 [DTC],2024-237H,2026-07-12T21:46:20.831520,15.70905063,.00014324,42.9993,22.0266,258.3889,101.6818,0,U,62274,999,9269,.1582347E-2,.208326E-2,0
STARLINK-11495 [DTC],2024-237J,2026-07-12T22:32:13.245216,15.70892376,.00016151,43.0001,22.2863,297.3516,62.7187,0,U,62275,999,9269,.10974359E-2,.143133E-2,0
STARLINK-11498 [DTC],2024-237K,2026-07-12T21:23:24.679968,15.70874130,.00019948,43.0001,21.8982,278.0562,82.0080,0,U,62276,999,9274,.10276041E-2,.133744E-2,0
STARLINK-11484 [DTC],2024-237L,2026-07-12T21:38:42.176256,15.70875001,.00018059,42.9996,21.9850,270.4652,89.6009,0,U,62277,999,9274,.10382118E-2,.135156E-2,0
STARLINK-11487 [DTC],2024-237M,2026-07-12T22:16:55.666848,15.70893776,.00017702,42.9998,22.1953,277.4218,82.6449,0,U,62278,999,9274,.11969997E-2,.156421E-2,0
STARLINK-11499 [DTC],2024-237N,2026-07-12T21:01:56.498304,15.70901363,.00027057,43.0018,22.6715,274.8361,85.2197,0,U,62279,999,9266,.31261608E-3,.39965E-3,0
STARLINK-33548,2024-237P,2026-07-13T03:23:38.389056,15.27601693,.00008593,42.9948,217.0154,174.5647,185.5214,0,U,62280,999,9050,.40433015E-3,.10888E-3,0
STARLINK-33544,2024-237Q,2026-07-12T11:25:22.234656,15.27581961,.00015296,42.9988,231.8695,274.7951,85.2726,0,U,62281,999,9027,.26266934E-3,.6973E-4,0
STARLINK-33560,2024-237R,2026-07-13T04:15:11.123712,15.27588532,.00013085,42.9961,227.6669,272.9920,87.0782,0,U,62282,999,9029,.41288683E-3,.1112E-3,0
STARLINK-33547,2024-237S,2026-07-13T03:18:03.811968,15.27585647,.00017816,42.9915,216.9765,199.1896,160.8888,0,U,62283,999,9050,.46169131E-3,.12467E-3,0
STARLINK-33563,2024-237T,2026-07-13T02:50:16.545984,15.27589164,.00011154,42.9977,228.0847,276.7430,83.3295,0,U,62284,999,9037,.32492833E-3,.8692E-4,0
STARLINK-33550,2024-237U,2026-07-13T02:35:28.527648,15.27586877,.00017037,42.9982,228.0095,286.0712,73.9952,0,U,62285,999,9037,.25331527E-3,.6716E-4,0
STARLINK-33564,2024-237V,2026-07-13T02:55:47.764704,15.27632372,.00010462,42.9952,228.1157,259.7020,100.3713,0,U,62286,999,9037,.7682101E-3,.20971E-3,0
STARLINK-33546,2024-237W,2026-07-12T14:11:28.878144,15.27618838,.0000183,42.9940,231.0092,101.0353,259.0519,0,U,62287,999,9020,.89442E-3,.24462E-3,0
STARLINK-33565,2024-237X,2026-07-13T02:35:30.369696,15.27580181,.00011875,42.9985,216.7617,267.2415,92.8301,0,U,62288,999,9050,.15354646E-3,.3966E-4,0
STARLINK-33549,2024-237Y,2026-07-13T06:09:42.731712,15.27574068,.00016759,42.9958,227.4039,244.4376,115.6302,0,U,62289,999,9039,.43625194E-3,.1176E-3,0
STARLINK-32648,2024-239A,2026-07-12T18:06:10.924704,15.34406123,.00009001,53.1602,319.3968,65.5528,294.5568,0,U,62301,999,8872,.44700565E-3,.14759E-3,0
STARLINK-32594,2024-239B,2026-07-12T18:39:36.577152,15.34406872,.00006014,53.1598,329.3337,78.6782,281.4289,0,U,62302,999,8858,.68281206E-3,.22769E-3,0
STARLINK-32621,2024-239C,2026-07-12T13:36:54.396864,15.34363898,.0001095,53.1595,320.3567,86.6803,273.4325,0,U,62303,999,8869,.60546E-3,.20112E-3,0
