STARLINK-32652          
1 62234U 24231S   26193.85141339  .00021067  00000+0  68925-3 0  9992
2 62234  53.1614 358.0937 0001151  71.2486 288.8641 15.31675762 90920
STARLINK-32631          
1 62235U 24231T   26193.90416175  .00013547  00000+0  44727-3 0  9990
2 62235  53.1590 344.2254 0001078  79.9648 280.1475 15.31717515 91122
STARLINK-32641          
1 62236U 24231U   26193.80426667  .00012777  00000+0  44263-3 0  9996
2 62236  53.1612 345.7267 0001268  82.3067 277.8078 15.30210056 91097
STARLINK-32632          
1 62262U 24231V   26193.77681593  .00014736  00000+0  48538-3 0  9998
2 62262  53.1611 358.3393 0001152  96.1084 264.0048 15.31719071 90927
STARLINK-11496 [DTC]    
1 62267U 24237A   26193.53630786  .00230638  00000+0  17476-2 0  9998
2 62267  43.0003  24.4160 0001970 257.5692 102.4956 15.70893034 92687
STARLINK-11501 [DTC]    
1 62268U 24237B   26193.88594901  .00150871  00000+0  11565-2 0  9998
2 62268  42.9997  21.8581 0001595 274.3366  85.7319 15.70871968 92693
STARLINK-11491 [DTC]    
1 62269U 24237C   26193.88064186  .00199575  00000+0  15240-2 0  9994
2 62269  43.0002  21.8166 0001428 302.4948  57.5782 15.70804933 92741
STARLINK-11479 [DTC]    
1 62270U 24237D   26193.89656767  .00223231  00000+0  16922-2 0  9994
2 62270  43.0003  21.9432 0001789 273.8619  86.2045 15.70905310 92749
STARLINK-11489 [DTC]    
1 62271U 24237E   26193.87015058  .00126013  00000+0  96904-3 0  9994
2 62271  42.9993  22.6301 0001730 281.3052  78.7621 15.70881148 92737
STARLINK-11494 [DTC]    
1 62272U 24237F   26192.95875406  .00141187  00000+0  10853-2 0  9991
2 62272  42.9985  27.8231 0000959 283.9144  76.1617 15.70838273 92547
STARLINK-11333 [DTC]    
1 62273U 24237G   26193.92311132  .00135787  00000+0  10422-2 0  9992
2 62273  43.0017  22.1587 0002490 281.8401  78.2188 15.70890966 92748
STARLINK-11504 [DTC]    
1 62274U 24237H   26193.90718555  .00208326  00000+0  15823-2 0  9991
2 62274  42.9993  22.0266 0001432 258.3889 101.6818 15.70905063 92697
STARLINK-11495 [DTC]    
1 62275U 24237J   26193.93904219  .00143133  00000+0  10974-2 0  9995
2 62275  43.0001  22.2863 0001615 297.3516  62.7187 15.70892376 92696
STARLINK-11498 [DTC]    
1 62276U 24237K   26193.89125787  .00133744  00000+0  10276-2 0  9998
2 62276  43.0001  21.8982 0001994 278.0562  82.0080 15.70874130 92742
STARLINK-11484 [DTC]    
1 62277U 24237L   26193.90187704  .00135156  00000+0  10382-2 0  9995
2 62277  42.9996  21.9850 0001805 270.4652  89.6009 15.70875001 92748
STARLINK-11487 [DTC]    
1 62278U 24237M   26193.92842207  .00156421  00000+0  11970-2 0  9996
2 62278  42.9998  22.1953 0001770 277.4218  82.6449 15.70893776 92744
STARLINK-11499 [DTC]    
1 62279U 24237N   26193.87634836  .00039965  00000+0  31262-3 0  9998
2 62279  43.0018  22.6715 0002705 274.8361  85.2197 15.70901363 92662
STARLINK-33548          
1 62280U 24237P   26194.14141654  .00010888  00000+0  40433-3 0  9995
2 62280  42.9948 217.0154 0000859 174.5647 185.5214 15.27601693 90502
STARLINK-33544          
1 62281U 24237Q   26193.47595179  .00006973  00000+0  26267-3 0  9995
2 62281  42.9988 231.8695 0001529 274.7951  85.2726 15.27581961 90270
STARLINK-33560          
1 62282U 24237R   26194.17721208  .00011120  00000+0  41289-3 0  9999
2 62282  42.9961 227.6669 0001308 272.9920  87.0782 15.27588532 90292
STARLINK-33547          
1 62283U 24237S   26194.13754412  .00012467  00000+0  46169-3 0  9996
2 62283  42.9915 216.9765 0001781 199.1896 160.8888 15.27585647 90502
STARLINK-33563          
1 62284U 24237T   26194.11824706  .00008692  00000+0  32493-3 0  9999
2 62284  42.9977 228.0847 0001115 276.7430  83.3295 15.27589164 90377
STARLINK-33550          
1 62285U 24237U   26194.10796907  .00006716  00000+0  25332-3 0  9999
2 62285  42.9982 228.0095 0001703 286.0712  73.9952 15.27586877 90372
STARLINK-33564          
1 62286U 24237V   26194.12208061  .00020971  00000+0  76821-3 0  9999
2 62286  42.9952 228.1157 0001046 259.7020 100.3713 15.27632372 90371
STARLINK-33546          
1 62287U 24237W   26193.59130646  .00024462  00000+0  89442-3 0  9995
2 62287  42.9940 231.0092 0000183 101.0353 259.0519 15.27618838 90208
STARLINK-33565          
1 62288U 24237X   26194.10799039  .00003966  00000+0  15355-3 0  9999
2 62288  42.9985 216.7617 0001187 267.2415  92.8301 15.27580181 90504
STARLINK-33549          
1 62289U 24237Y   26194.25674458  .00011760  00000+0  43625-3 0  9995
2 62289  42.9958 227.4039 0001675 244.4376 115.6302 15.27574068 90396
STARLINK-32648          
1 62301U 24239A   26193.75429311  .00014759  00000+0  44701-3 0  9999
2 62301  53.1602 319.3968 0000900  65.5528 294.5568 15.34406123 88723
STARLINK-32594          
1 62302U 24239B   26193.77750668  .00022769  00000+0  68281-3 0  9993
2 62302  53.1598 329.3337 0000601  78.6782 281.4289 15.34406872 88584
STARLINK-32621          
1 62303U 24239C   26193.56729626  .00020112  00000+0  60546-3 0  9997
2 62303  53.1595 320.3567 0001095  86.6803 273.4325 15.34363898 88693
